1998-067WY              
1 60958U 98067WY  24261.18595596  .00248507  00000+0  36489-2 0  9998
2 60958  51.6364 219.2930 0011667  11.2677 348.8573 15.54036924  2915
SENTINEL-2C             
1 60989U 24157A   24260.79616594  .00000670  00000+0  25375-3 0  9999
2 60989  98.5698 333.6596 0001289 244.8497 115.2554 14.34422771  1685
STARLINK-11289 [DTC]    
1 60991U 24158B   24261.25001157 -.00003520  00000+0 -17553-4 0  9997
2 60991  53.1575  57.2358 0000961 112.2868 259.2254 15.76686104  2967
STARLINK-11282 [DTC]    
1 60992U 24158C   24261.25001157 -.00410491  00000+0 -18713-2 0  9994
2 60992  53.1534  56.8918 0000792  46.2908 132.2787 15.84081535  3028
STARLINK-11283 [DTC]    
1 60993U 24158D   24261.00001157 -.01049298  00000+0 -67590-2 0  9999
2 60993  53.1546  58.3629 0000871  44.4220  45.3143 15.77860461  2982
STARLINK-11267 [DTC]    
1 60994U 24158E   24261.16667824 -.00646838  00000+0 -38979-2 0  9997
2 60994  53.1541  57.4804 0000910 111.0690 230.0502 15.78688728  3011
STARLINK-11269 [DTC]    
1 60995U 24158F   24261.25001157 -.00158455  00000+0 -90413-3 0  9994
2 60995  53.1538  57.0157 0000932  36.6673  81.7570 15.78578455  3024
STARLINK-11281 [DTC]    
1 60996U 24158G   24261.00001157 -.00966294  00000+0 -55043-2 0  9995
2 60996  53.1532  58.2262 0001095  47.5782 108.5988 15.80736317  2983
STARLINK-11260 [DTC]    
1 60997U 24158H   24261.00001157 -.00098684  14396-4 -23075-3 0  9994
2 60997  53.1522  57.6606 0001157  34.9695  32.9150 15.95624175  3032
STARLINK-11287 [DTC]    
1 60998U 24158J   24261.00001157 -.00967298  00000+0 -51688-2 0  9993
2 60998  53.1532  58.1919 0001122  46.9021 125.8900 15.82103200  2980
STARLINK-11270 [DTC]    
1 60999U 24158K   24261.00001157 -.00967104  00000+0 -48600-2 0  9990
2 60999  53.1530  58.1628 0001059  49.9118 137.1077 15.83396269  2986
STARLINK-11290 [DTC]    
1 61000U 24158L   24261.16667824 -.00684766  00000+0 -32165-2 0  9999
2 61000  53.1531  57.2984 0000797  57.7185  11.8553 15.84118594  3055
STARLINK-11274 [DTC]    
1 61001U 24158M   24261.16667824 -.00430812  00000+0 -19251-2 0  9992
2 61001  53.1532  57.2764 0000673  60.7850  19.5479 15.84547633  3017
STARLINK-11288 [DTC]    
1 61002U 24158N   24261.00001157 -.00404826  00000+0 -17530-2 0  9991
2 61002  53.1531  58.0962 0001070  48.4466 170.9501 15.85134109  2988
STARLINK-32279          
1 61003U 24158P   24261.16667824 -.00884607  00000+0 -43655-2 0  9994
2 61003  53.1529  57.2058 0000826  62.4725  51.8004 15.83573087  3059
STARLINK-32336          
1 61004U 24158Q   24261.00001157 -.00847518  00000+0 -41987-2 0  9995
2 61004  53.1527  58.0797 0001060  53.7164 173.5778 15.83398884  3036
STARLINK-32284          
1 61005U 24158R   24261.00001157 -.00834019  00000+0 -41741-2 0  9996
2 61005  53.1524  58.0965 0001064  54.6502 164.3063 15.83152185  2981
STARLINK-32282          
1 61006U 24158S   24261.00001157 -.00860259  00000+0 -42196-2 0  9997
2 61006  53.1522  58.0623 0001045  56.1181 179.5057 15.83638478  3032
STARLINK-32360          
1 61007U 24158T   24261.00001157  .00507419  00000+0  18756-2 0  9997
2 61007  53.1521  58.0233 0001065 324.7883 289.3891 15.86329566  2981
STARLINK-32340          
1 61008U 24158U   24261.00001157 -.00883520  00000+0 -41500-2 0  9993
2 61008  53.1521  58.0016 0000998  43.2088 221.5364 15.84595715  2987
STARLINK-32357          
1 61009U 24158V   24261.16667824 -.00896709  00000+0 -42367-2 0  9995
2 61009  53.1522  57.1454 0001036  55.8113  87.5464 15.84506164  3013
STARLINK-32347          
1 61010U 24158W   24261.16667824 -.00891606  00000+0 -43037-2 0  9993
2 61010  53.1523  57.1753 0000912  55.0049  73.7698 15.84050998  3015
2024-159A               
1 61011U 24159A   24261.12895967  .00041248  00000+0  31009-2 0  9995
2 61011  50.0018 186.3408 0007848 297.2369  62.7777 15.02103471  1708
2024-159B               
1 61012U 24159B   24261.19986744  .00036320  00000+0  29009-2 0  9999
2 61012  49.9942 186.0410 0006003 314.6107  45.4348 14.99862816  1711
2024-159C               
1 61013U 24159C   24259.66155013  .00013283  00000+0  99909-3 0  9996
2 61013  49.9930 193.2873 0008620 297.1241  62.8826 15.02747541  2226
2024-159D               
1 61014U 24159D   24261.18997175  .00043474  00000+0  31903-2 0  9994
2 61014  50.0050 185.9916 0008623 305.3542  54.6598 15.02987408  1747
2024-159E               
1 61015U 24159E   24261.19143466  .00059381  00000+0  43711-2 0  9996
2 61015  50.0045 186.0017 0007552 311.9730  48.0572 15.02729040  1697
2024-159F               
1 61016U 24159F   24260.80376631  .00025007  00000+0  19961-2 0  9994
2 61016  50.0267 187.9645 0037538 154.6313 240.6020 14.99540220  1624
2024-159G               
1 61017U 24159G   24261.19192931  .00039735  00000+0  29514-2 0  9995
2 61017  49.9931 185.9909 0006488 312.1377  47.9017 15.02583651  1682
2024-159H               
1 61018U 24159H   24261.19119363  .00039000  00000+0  28894-2 0  9999
2 61018  50.0050 185.9989 0006704 321.4895  38.5572 15.02689180  1681
2024-159J               
1 61019U 24159J   24260.79200219  .00016628  00000+0  12718-2 0  9995
2 61019  49.9959 187.8936 0005456 331.7514  28.3136 15.01955514  1628
2024-159K               
1 61020U 24159K   24261.19086432  .00039326  00000+0  29101-2 0  9995
2 61020  49.9994 185.9899 0007441 308.7309  51.2972 15.02725454  1697
SOYUZ-MS 26             
1 61043U 24162A   24260.83224618  .00024748  00000+0  45228-3 0  9995
2 61043  51.6367 221.4278 0007406 359.2886   0.8091 15.49208107472691
SPACEMOBILE-003         
1 61045U 24163A   24260.64755345  .00004901  00000+0  25997-3 0  9993
2 61045  52.9793   2.2907 0012087 333.6936  26.3441 15.17042168   650
SPACEMOBILE-005         
1 61046U 24163B   24260.64691482  .00005001  00000+0  26322-3 0  9990
2 61046  52.9806   2.2928 0012657 338.4846  21.5613 15.17271516   643
SPACEMOBILE-001         
1 61047U 24163C   24260.71265671  .00005062  00000+0  26591-3 0  9991
2 61047  52.9770   1.9796 0012454 339.4348  20.6142 15.17317504   652
SPACEMOBILE-002         
1 61048U 24163D   24260.71191280  .00005179  00000+0  26972-3 0  9998
2 61048  52.9804   1.9763 0011799 343.3088  16.7515 15.17581455   659
SPACEMOBILE-004         
1 61049U 24163E   24260.71142724  .00005203  00000+0  26957-3 0  9999
2 61049  52.9805   1.9796 0012378 348.2551  11.8151 15.17753307   659
CHAMRAN-1               
1 61071U 24165A   24261.21628584  .00012327  00000+0  87656-3 0  9993
2 61071  64.0977 330.2094 0007458 239.5588 120.4788 15.04954805   444
QAEM 100 R/B            
1 61072U 24165B   24260.94875215  .00010926  00000+0  75868-3 0  9993
2 61072  64.0964 331.0669 0008529 272.5637  87.4500 15.05916681   401
POLARIS DAWN DEB [TRUNK]
1 61073U 24161B   24261.20366498  .01110644  11037-4  17248-2 0  9991
2 61073  51.6558 352.7054 0165241  76.0673 285.8646 15.82763319   322
METHANESAT
1 99111U 98067A   24067.00000000  .00007327  00000-0  73884-3 0 00005
2 99111 097.7472 192.2486 0009171 267.4737 229.7526 14.91136514000014
ATLAS CENTAUR 2         
1 00694U 63047A   24260.41427134  .00003893  00000+0  48005-3 0  9991
2 00694  30.3554 322.2992 0561728  18.8512 343.2029 14.08543686 55428
THOR AGENA D R/B        
1 00733U 64002A   24260.92205075  .00001124  00000+0  42249-3 0  9990
2 00733  99.0853 234.8244 0033838  28.8307 331.4736 14.33385825161095
SL-3 R/B                
1 00877U 64053B   24260.92569397  .00001110  00000+0  24698-3 0  9998
2 00877  65.0765 109.8275 0058578 164.9427 195.3434 14.60543976188080
SL-8 R/B                
1 02802U 67045B   24261.21065900  .00001637  00000+0  46632-3 0  9992
2 02802  74.0094 273.2510 0064292  49.4043 311.2684 14.44857969 11324
SL-8 R/B                
1 03230U 68040B   24260.62392559  .00007647  00000+0  65440-3 0  9996
2 03230  74.0365 330.8653 0028252 296.9491  62.8809 14.97440361 30388
OAO 2                   
1 03597U 68110A   24260.69744473  .00001026  00000+0  28520-3 0  9996
2 03597  34.9944  33.4349 0005669 203.0490 156.9946 14.46713996941014
ISIS 1                  
1 03669U 69009A   24260.89755993  .00000547  00000+0  37445-3 0  9998
2 03669  88.4443 214.0925 1710275  96.6889 283.0815 11.29971076288007
SERT 2                  
1 04327U 70009A   24260.88299604  .00000142  00000+0  24972-3 0  9995
2 04327  99.1974 224.4652 0005779  99.2081 315.7176 13.58641511706726
SL-3 R/B                
1 05118U 71028B   24261.20344393  .00051120  00000+0  16175-2 0  9996
2 05118  81.2519 340.9300 0032244  13.0347 347.1716 15.32031565905807
ASTEX 1                 
1 05560U 71089A   24261.18118228  .00003425  00000+0  88921-3 0  9991
2 05560  92.7212 337.6084 0018182 101.6044 258.7203 14.49688008784530
SL-8 R/B                
1 05730U 71119B   24260.96696679  .00020191  00000+0  11577-2 0  9991
2 05730  73.8891  93.4427 0606047 170.1110 191.2635 14.23761853578373
COSMOS 482 DESCENT CRAFT
1 06073U 72023E   24261.16541122  .00201429  87769-5  28843-3 0  9995
2 06073  51.9883 298.2462 0609196 357.3353   2.4416 14.86308223715215
OAO 3 (COPERNICUS)      
1 06153U 72065A   24260.86366066  .00001364  00000+0  28968-3 0  9999
2 06153  35.0049 125.5913 0005980  71.9197 354.0556 14.59144803767692
ATLAS CENTAUR R/B       
1 06155U 72065B   24260.94050425  .00003738  00000+0  54364-3 0  9995
2 06155  35.0014 217.7715 0035207 164.8432 195.3329 14.75058467761583
SL-8 R/B                
1 08459U 75112B   24260.54490411  .00000802  00000+0  27537-3 0  9990
2 08459  74.0599 290.3461 0015102 160.4156 199.7581 14.37632826554375
SL-3 R/B                
1 10114U 77057B   24260.91613810  .00016708  00000+0  56934-3 0  9997
2 10114  97.5213  46.1250 0010788  59.0420 301.1879 15.30400558585501
SEASAT 1                
1 10967U 78064A   24261.19626717  .00002182  00000+0  66003-3 0  9992
2 10967 108.0059  76.4666 0002545 251.5081 108.5787 14.45218392428998
